<?xml version="1.0" encoding="UTF-8"?>
<ndm xmlns:xsi="http://www.w3.org/2001/XMLSchema-instance" xsi:noNamespaceSchemaLocation="https://sanaregistry.org/r/ndmxml_unqualified/ndmxml-2.0.0-master-2.0.xsd">
<omm id="CCSDS_OMM_VERS" version="2.0">
<header><CREATION_DATE/><ORIGINATOR/></header><body><segment><metadata><OBJECT_NAME>KUIPER-00027</OBJECT_NAME><OBJECT_ID>2025-088S</OBJECT_ID><CENTER_NAME>EARTH</CENTER_NAME><REF_FRAME>TEME</REF_FRAME><TIME_SYSTEM>UTC</TIME_SYSTEM><MEAN_ELEMENT_THEORY>SGP4</MEAN_ELEMENT_THEORY></metadata><data><meanElements><EPOCH>2025-08-30T22:00:01.999584</EPOCH><MEAN_MOTION>15.09614099</MEAN_MOTION><ECCENTRICITY>.00018855</ECCENTRICITY><INCLINATION>51.8874</INCLINATION><RA_OF_ASC_NODE>221.4209</RA_OF_ASC_NODE><ARG_OF_PERICENTER>237.7805</ARG_OF_PERICENTER><MEAN_ANOMALY>140.0642</MEAN_ANOMALY></meanElements><tleParameters><EPHEMERIS_TYPE>0</EPHEMERIS_TYPE><CLASSIFICATION_TYPE>U</CLASSIFICATION_TYPE><NORAD_CAT_ID>63740</NORAD_CAT_ID><ELEMENT_SET_NO>999</ELEMENT_SET_NO><REV_AT_EPOCH>488</REV_AT_EPOCH><BSTAR>.26701796E-2</BSTAR><MEAN_MOTION_DOT>.43419E-3</MEAN_MOTION_DOT><MEAN_MOTION_DDOT>0</MEAN_MOTION_DDOT></tleParameters></data></segment></body></omm>
<omm id="CCSDS_OMM_VERS" version="2.0">
<header><CREATION_DATE/><ORIGINATOR/></header><body><segment><metadata><OBJECT_NAME>KUIPER-00028</OBJECT_NAME><OBJECT_ID>2025-088T</OBJECT_ID><CENTER_NAME>EARTH</CENTER_NAME><REF_FRAME>TEME</REF_FRAME><TIME_SYSTEM>UTC</TIME_SYSTEM><MEAN_ELEMENT_THEORY>SGP4</MEAN_ELEMENT_THEORY></metadata><data><meanElements><EPOCH>2025-08-30T22:00:01.999584</EPOCH><MEAN_MOTION>15.14869325</MEAN_MOTION><ECCENTRICITY>.00019682</ECCENTRICITY><INCLINATION>51.8849</INCLINATION><RA_OF_ASC_NODE>220.5303</RA_OF_ASC_NODE><ARG_OF_PERICENTER>231.8164</ARG_OF_PERICENTER><MEAN_ANOMALY>185.5937</MEAN_ANOMALY></meanElements><tleParameters><EPHEMERIS_TYPE>0</EPHEMERIS_TYPE><CLASSIFICATION_TYPE>U</CLASSIFICATION_TYPE><NORAD_CAT_ID>63741</NORAD_CAT_ID><ELEMENT_SET_NO>999</ELEMENT_SET_NO><REV_AT_EPOCH>502</REV_AT_EPOCH><BSTAR>-.37526019E-1</BSTAR><MEAN_MOTION_DOT>-.662367E-2</MEAN_MOTION_DOT><MEAN_MOTION_DDOT>0</MEAN_MOTION_DDOT></tleParameters></data></segment></body></omm>
<omm id="CCSDS_OMM_VERS" version="2.0">
<header><CREATION_DATE/><ORIGINATOR/></header><body><segment><metadata><OBJECT_NAME>KUIPER-00029</OBJECT_NAME><OBJECT_ID>2025-088U</OBJECT_ID><CENTER_NAME>EARTH</CENTER_NAME><REF_FRAME>TEME</REF_FRAME><TIME_SYSTEM>UTC</TIME_SYSTEM><MEAN_ELEMENT_THEORY>SGP4</MEAN_ELEMENT_THEORY></metadata><data><meanElements><EPOCH>2025-08-30T22:00:01.999584</EPOCH><MEAN_MOTION>15.20637075</MEAN_MOTION><ECCENTRICITY>.00029193</ECCENTRICITY><INCLINATION>51.8794</INCLINATION><RA_OF_ASC_NODE>220.2451</RA_OF_ASC_NODE><ARG_OF_PERICENTER>188.3812</ARG_OF_PERICENTER><MEAN_ANOMALY>330.2631</MEAN_ANOMALY></meanElements><tleParameters><EPHEMERIS_TYPE>0</EPHEMERIS_TYPE><CLASSIFICATION_TYPE>U</CLASSIFICATION_TYPE><NORAD_CAT_ID>63742</NORAD_CAT_ID><ELEMENT_SET_NO>999</ELEMENT_SET_NO><REV_AT_EPOCH>374</REV_AT_EPOCH><BSTAR>-.41192586E-1</BSTAR><MEAN_MOTION_DOT>-.843827E-2</MEAN_MOTION_DOT><MEAN_MOTION_DDOT>0</MEAN_MOTION_DDOT></tleParameters></data></segment></body></omm>
<omm id="CCSDS_OMM_VERS" version="2.0">
<header><CREATION_DATE/><ORIGINATOR/></header><body><segment><metadata><OBJECT_NAME>KUIPER-00030</OBJECT_NAME><OBJECT_ID>2025-088V</OBJECT_ID><CENTER_NAME>EARTH</CENTER_NAME><REF_FRAME>TEME</REF_FRAME><TIME_SYSTEM>UTC</TIME_SYSTEM><MEAN_ELEMENT_THEORY>SGP4</MEAN_ELEMENT_THEORY></metadata><data><meanElements><EPOCH>2025-08-30T22:33:28.375200</EPOCH><MEAN_MOTION>14.79926863</MEAN_MOTION><ECCENTRICITY>.00142064</ECCENTRICITY><INCLINATION>51.9004</INCLINATION><RA_OF_ASC_NODE>234.0255</RA_OF_ASC_NODE><ARG_OF_PERICENTER>164.6994</ARG_OF_PERICENTER><MEAN_ANOMALY>195.4401</MEAN_ANOMALY></meanElements><tleParameters><EPHEMERIS_TYPE>0</EPHEMERIS_TYPE><CLASSIFICATION_TYPE>U</CLASSIFICATION_TYPE><NORAD_CAT_ID>63743</NORAD_CAT_ID><ELEMENT_SET_NO>999</ELEMENT_SET_NO><REV_AT_EPOCH>1938</REV_AT_EPOCH><BSTAR>-.21268926E-3</BSTAR><MEAN_MOTION_DOT>-.1849E-4</MEAN_MOTION_DOT><MEAN_MOTION_DDOT>0</MEAN_MOTION_DDOT></tleParameters></data></segment></body></omm>
<omm id="CCSDS_OMM_VERS" version="2.0">
<header><CREATION_DATE/><ORIGINATOR/></header><body><segment><metadata><OBJECT_NAME>KUIPER-00031</OBJECT_NAME><OBJECT_ID>2025-088W</OBJECT_ID><CENTER_NAME>EARTH</CENTER_NAME><REF_FRAME>TEME</REF_FRAME><TIME_SYSTEM>UTC</TIME_SYSTEM><MEAN_ELEMENT_THEORY>SGP4</MEAN_ELEMENT_THEORY></metadata><data><meanElements><EPOCH>2025-08-30T22:00:01.999584</EPOCH><MEAN_MOTION>15.06842375</MEAN_MOTION><ECCENTRICITY>.00016031</ECCENTRICITY><INCLINATION>51.8818</INCLINATION><RA_OF_ASC_NODE>222.1777</RA_OF_ASC_NODE><ARG_OF_PERICENTER>174.8706</ARG_OF_PERICENTER><MEAN_ANOMALY>123.9006</MEAN_ANOMALY></meanElements><tleParameters><EPHEMERIS_TYPE>0</EPHEMERIS_TYPE><CLASSIFICATION_TYPE>U</CLASSIFICATION_TYPE><NORAD_CAT_ID>63744</NORAD_CAT_ID><ELEMENT_SET_NO>999</ELEMENT_SET_NO><REV_AT_EPOCH>529</REV_AT_EPOCH><BSTAR>-.10783163E+0</BSTAR><MEAN_MOTION_DOT>-.1483969E-1</MEAN_MOTION_DOT><MEAN_MOTION_DDOT>0</MEAN_MOTION_DDOT></tleParameters></data></segment></body></omm>
<omm id="CCSDS_OMM_VERS" version="2.0">
<header><CREATION_DATE/><ORIGINATOR/></header><body><segment><metadata><OBJECT_NAME>KUIPER-00032</OBJECT_NAME><OBJECT_ID>2025-088X</OBJECT_ID><CENTER_NAME>EARTH</CENTER_NAME><REF_FRAME>TEME</REF_FRAME><TIME_SYSTEM>UTC</TIME_SYSTEM><MEAN_ELEMENT_THEORY>SGP4</MEAN_ELEMENT_THEORY></metadata><data><meanElements><EPOCH>2025-08-30T22:49:07.964832</EPOCH><MEAN_MOTION>15.29561872</MEAN_MOTION><ECCENTRICITY>.0004813</ECCENTRICITY><INCLINATION>51.8715</INCLINATION><RA_OF_ASC_NODE>220.7944</RA_OF_ASC_NODE><ARG_OF_PERICENTER>146.5181</ARG_OF_PERICENTER><MEAN_ANOMALY>213.6107</MEAN_ANOMALY></meanElements><tleParameters><EPHEMERIS_TYPE>0</EPHEMERIS_TYPE><CLASSIFICATION_TYPE>U</CLASSIFICATION_TYPE><NORAD_CAT_ID>63745</NORAD_CAT_ID><ELEMENT_SET_NO>999</ELEMENT_SET_NO><REV_AT_EPOCH>2028</REV_AT_EPOCH><BSTAR>.78436234E-3</BSTAR><MEAN_MOTION_DOT>.22514E-3</MEAN_MOTION_DOT><MEAN_MOTION_DDOT>0</MEAN_MOTION_DDOT></tleParameters></data></segment></body></omm>
<omm id="CCSDS_OMM_VERS" version="2.0">
<header><CREATION_DATE/><ORIGINATOR/></header><body><segment><metadata><OBJECT_NAME>KUIPER-00033</OBJECT_NAME><OBJECT_ID>2025-088Y</OBJECT_ID><CENTER_NAME>EARTH</CENTER_NAME><REF_FRAME>TEME</REF_FRAME><TIME_SYSTEM>UTC</TIME_SYSTEM><MEAN_ELEMENT_THEORY>SGP4</MEAN_ELEMENT_THEORY></metadata><data><meanElements><EPOCH>2025-08-30T17:16:03.785664</EPOCH><MEAN_MOTION>14.79946087</MEAN_MOTION><ECCENTRICITY>.00026977</ECCENTRICITY><INCLINATION>51.8985</INCLINATION><RA_OF_ASC_NODE>251.0611</RA_OF_ASC_NODE><ARG_OF_PERICENTER>277.6973</ARG_OF_PERICENTER><MEAN_ANOMALY>82.3683</MEAN_ANOMALY></meanElements><tleParameters><EPHEMERIS_TYPE>0</EPHEMERIS_TYPE><CLASSIFICATION_TYPE>U</CLASSIFICATION_TYPE><NORAD_CAT_ID>63746</NORAD_CAT_ID><ELEMENT_SET_NO>999</ELEMENT_SET_NO><REV_AT_EPOCH>1932</REV_AT_EPOCH><BSTAR>.43291848E-3</BSTAR><MEAN_MOTION_DOT>.3081E-4</MEAN_MOTION_DOT><MEAN_MOTION_DDOT>0</MEAN_MOTION_DDOT></tleParameters></data></segment></body></omm>
<omm id="CCSDS_OMM_VERS" version="2.0">
<header><CREATION_DATE/><ORIGINATOR/></header><body><segment><metadata><OBJECT_NAME>KUIPER-00034</OBJECT_NAME><OBJECT_ID>2025-088Z</OBJECT_ID><CENTER_NAME>EARTH</CENTER_NAME><REF_FRAME>TEME</REF_FRAME><TIME_SYSTEM>UTC</TIME_SYSTEM><MEAN_ELEMENT_THEORY>SGP4</MEAN_ELEMENT_THEORY></metadata><data><meanElements><EPOCH>2025-08-30T22:00:01.999584</EPOCH><MEAN_MOTION>15.26251905</MEAN_MOTION><ECCENTRICITY>.0001025</ECCENTRICITY><INCLINATION>51.8747</INCLINATION><RA_OF_ASC_NODE>218.9726</RA_OF_ASC_NODE><ARG_OF_PERICENTER>125.6476</ARG_OF_PERICENTER><MEAN_ANOMALY>339.9665</MEAN_ANOMALY></meanElements><tleParameters><EPHEMERIS_TYPE>0</EPHEMERIS_TYPE><CLASSIFICATION_TYPE>U</CLASSIFICATION_TYPE><NORAD_CAT_ID>63747</NORAD_CAT_ID><ELEMENT_SET_NO>999</ELEMENT_SET_NO><REV_AT_EPOCH>576</REV_AT_EPOCH><BSTAR>-.37016453E-1</BSTAR><MEAN_MOTION_DOT>-.903304E-2</MEAN_MOTION_DOT><MEAN_MOTION_DDOT>0</MEAN_MOTION_DDOT></tleParameters></data></segment></body></omm>

</ndm>
