KUIPER-00027            
1 63740U 25088S   25242.91668981  .00043419  00000+0  26702-2 0  9995
2 63740  51.8874 221.4209 0001885 237.7805 140.0642 15.09614099  4880
KUIPER-00028            
1 63741U 25088T   25242.91668981 -.00662367  00000+0 -37526-1 0  9992
2 63741  51.8849 220.5303 0001968 231.8164 185.5937 15.14869325  5021
KUIPER-00029            
1 63742U 25088U   25242.91668981 -.00843827  00000+0 -41193-1 0  9990
2 63742  51.8794 220.2451 0002919 188.3812 330.2631 15.20637075  3744
KUIPER-00030            
1 63743U 25088V   25242.93991175 -.00001849  00000+0 -21269-3 0  9991
2 63743  51.9004 234.0255 0014206 164.6994 195.4401 14.79926863 19387
KUIPER-00031            
1 63744U 25088W   25242.91668981 -.01483969  00000+0 -10783+0 0  9999
2 63744  51.8818 222.1777 0001603 174.8706 123.9006 15.06842375  5296
KUIPER-00032            
1 63745U 25088X   25242.95078663  .00022514  00000+0  78436-3 0  9991
2 63745  51.8715 220.7944 0004813 146.5181 213.6107 15.29561872 20282
KUIPER-00033            
1 63746U 25088Y   25242.71948826  .00003081  00000+0  43292-3 0  9993
2 63746  51.8985 251.0611 0002697 277.6973  82.3683 14.79946087 19325
KUIPER-00034            
1 63747U 25088Z   25242.91668981 -.00903304  00000+0 -37016-1 0  9991
2 63747  51.8747 218.9726 0001025 125.6476 339.9665 15.26251905  5760
